[{"OBJECT_NAME":"IRIDIUM 128","OBJECT_ID":"2017-039J","EPOCH":"2026-03-09T22:17:06.660384","MEAN_MOTION":14.3421733,"ECCENTRICITY":0.00019867,"INCLINATION":86.3911,"RA_OF_ASC_NODE":66.6445,"ARG_OF_PERICENTER":95.0823,"MEAN_ANOMALY":265.0599,"EPHEMERIS_TYPE":0,"CLASSIFICATION_TYPE":"U","NORAD_CAT_ID":42811,"ELEMENT_SET_NO":999,"REV_AT_EPOCH":45575,"BSTAR":-1.154861e-5,"MEAN_MOTION_DOT":-1.3e-7,"MEAN_MOTION_DDOT":0},{"OBJECT_NAME":"NOAA 16 DEB","OBJECT_ID":"2000-055NL","EPOCH":"2026-03-09T02:24:22.336992","MEAN_MOTION":14.35938355,"ECCENTRICITY":0.00137728,"INCLINATION":98.7288,"RA_OF_ASC_NODE":170.8322,"ARG_OF_PERICENTER":130.254,"MEAN_ANOMALY":229.9852,"EPHEMERIS_TYPE":0,"CLASSIFICATION_TYPE":"U","NORAD_CAT_ID":41536,"ELEMENT_SET_NO":999,"REV_AT_EPOCH":52509,"BSTAR":0.0023901192,"MEAN_MOTION_DOT":6.904e-5,"MEAN_MOTION_DDOT":0}]
